{"type":"FeatureCollection","features":[{"type":"Feature","geometry":{"type":"MultiPolygon","coordinates":[[[[20.54957545058717,-35.47429441788445],[20.814289063809866,-35.28895796901091],[21.30961601053662,-35.26035934183161],[20.88849679460174,-35.64664463105567],[20.54957545058717,-35.47429441788445]]],[[[50.95673577257191,26.956406286275634],[50.226486535755235,27.976030823109838],[49.56907260153509,28.327690477756814],[49.14801242123532,28.990359238563563],[49.2314886275639,29.228697075454065],[49.43834372485091,29.179055664866617],[49.681802900443365,28.668322314030934],[50.36251777750333,28.200752424941964],[50.87025015761489,27.266884601745772],[51.873491144670105,26.914854719325685],[52.68196311898321,26.137971187839813],[53.692032466569245,25.68481345952467],[53.96554342392448,25.26037561835813],[52.97573546892459,25.139925448592994],[52.392485439876815,25.384481032042093],[52.41375160673692,26.003873997885933],[52.22371177605967,26.442058569161514],[51.57617844224119,26.94553741040965],[50.95673577257191,26.956406286275634]]],[[[70.32959508605909,19.985795178856502],[71.06123299599228,19.863810998952925],[71.85521907983681,20.15869118129373],[72.08923781835402,18.085846270156104],[71.56528338505883,18.375798071877266],[71.03590425905092,19.332757704818103],[70.50183302676886,19.67364812896549],[70.32959508605909,19.985795178856502]]],[[[90.4422081633259,20.9945342610894],[91.0669152073931,21.226811318284778],[91.24133226094679,20.897564139079275],[90.4422081633259,20.9945342610894]]],[[[96.77555887448194,15.697991432336877],[96.97660887892722,14.649854270717931],[97.13306425863715,14.161895703855988],[96.44727840327258,14.85722099944813],[95.65899393186027,14.909500862934562],[96.28339992026335,15.509900541924875],[96.77555887448194,15.697991432336877]]],[[[100.7967551540745,9.073225978118831],[100.87846101539742,10.029402864691233],[100.66097179036599,10.383873641034842],[100.2484944389914,10.605096995655943],[100.77679182366917,11.807582298512251],[101.4501746461728,11.835904402542543],[101.84185776445865,11.106021714365069],[102.28402937865208,10.774517587777453],[102.71025695980214,9.956563327495774],[103.95212062532642,9.164674114169806],[103.94027247750599,8.275860129325185],[104.1913684375257,7.948315706679946],[104.60215731795239,7.751042009368603],[105.38441290904986,7.832748967421442],[105.85899814688398,8.207941041816115],[106.37066709126061,7.828105149898244],[107.0235476841382,7.9239366171270165],[107.45829860645138,8.561043866864757],[107.36008667006088,9.350192125486384],[107.84485356708531,9.725051765912253],[107.86484554104915,8.918746217995249],[108.24058021461781,8.44937371585018],[108.33270321252189,6.624059986549047],[109.69614031651453,5.013570628112049],[110.12795892280151,4.7503067453032894],[111.36386358611074,4.5658154897137395],[112.06648594986545,4.728852372530807],[112.82282248403816,4.260172788094741],[112.52164374859073,3.9034464406151037],[110.9016287370434,3.4934656113140052],[110.40452023050157,2.649042627410277],[110.27846612425962,2.650025932608825],[109.87438683003367,2.9009187097593285],[109.54979580900377,3.528060233316839],[109.21749531380236,3.783554745597347],[109.17977095795705,4.198758464655086],[108.666540693814,5.311272968097516],[107.92612217656333,5.613712506692399],[107.47175839677715,5.42378297840439],[107.15279521517576,5.027798175679692],[107.1152417288732,3.575766169388716],[106.77420710954455,4.068135134594163],[106.23068486273154,4.215935547402507],[105.26136263975734,3.794712229625075],[104.89185509619827,3.354076828476285],[104.30524954133618,3.721324141811401],[104.32641830892989,4.509333345776108],[103.9246454605568,5.700076474743663],[102.09139055505561,7.503097269684726],[101.28859496041198,7.804248920873909],[100.7967551540745,9.073225978118831]]],[[[104.99832428838985,2.3839713343848348],[105.39186559753018,2.056024226518286],[106.21465760907643,1.8831707333011738],[106.7567679584884,2.0596720721983544],[107.059799389987,2.5194390451997033],[107.63727908490029,2.1547877236505384],[108.21412587171908,2.2392885150293],[108.38810002066032,1.925309634907229],[108.20230187402954,1.6107991001256758],[107.79583265630795,1.8512194479851636],[107.2926568528779,1.8475653103182976],[106.87971599135052,1.5600255969558066],[106.70172469190548,1.0893682489823253],[106.78971469504273,0.609874242185733],[107.12532734977684,0.23945930442537222],[107.61110644159446,0.12172335372828258],[108.07312246858889,0.2932441304879037],[108.35437576454218,-0.8524974623155598],[107.95883580723282,-1.25951853568393],[107.82759213398035,-1.7270217330047415],[106.99972130318746,-1.732685059463712],[106.46101076259298,-0.8438491100161],[105.77361143070787,-0.6560780178250482],[105.83179735797177,-0.05882443986041988],[105.52541827321356,0.39424531453689265],[105.65679617097585,1.2653510918239492],[105.06034740689006,1.9080284197916266],[104.99832428838985,2.3839713343848348]]],[[[109.32499921276468,-2.447323488995966],[109.33811550112345,-2.8491730178002324],[109.65936793115658,-3.7265525547468714],[108.88713915453951,-3.6495492896817616],[109.1288408044063,-3.006704594866493],[109.06826328355487,-2.50058679757008],[109.32499921276468,-2.447323488995966]]],[[[111.74448921907039,-4.40613969348188],[113.10837485375733,-4.124771648137192],[113.82022073462178,-4.285157138064484],[114.21387292584616,-4.9050101292911545],[114.96772108758863,-4.977105418686351],[115.32605478694073,-5.4950748636159785],[115.87583163304606,-5.632256179088476],[115.67150503046581,-6.0198870368262245],[115.06499524380607,-6.015579580810211],[114.62027109835897,-6.270576609773591],[113.53679342460688,-6.071846374106702],[113.42943316333564,-5.268607276675473],[113.12142882443064,-4.994351404722561],[112.72058686843047,-4.897353041875978],[111.98895802011533,-5.241259974525393],[111.7475684372741,-5.813269961181327],[111.49487022979099,-5.773883963632625],[111.00137107971368,-5.180545608610941],[111.48832718065516,-4.94958726658611],[111.74448921907039,-4.40613969348188]]],[[[109.59676721389522,-6.002981484789592],[109.1846848608082,-6.0006962193809645],[108.78294200127301,-5.509023411511786],[109.89060450006728,-4.931842842452121],[110.13755577294698,-5.0404387971987425],[109.70366246029221,-5.398010202186158],[109.59676721389522,-6.002981484789592]]],[[[106.72120244216332,-4.605288051146439],[106.79658552661749,-3.9285995522442336],[107.84242301555969,-4.0783518540132935],[106.91390512823432,-4.4644843383646835],[106.72120244216332,-4.605288051146439]]],[[[99.72088737779295,4.2236579756249615],[99.09664258412725,4.641926914753809],[98.36852030884806,5.622108143908566],[98.60929262637883,5.906728550415426],[99.35597332489773,5.479906394875505],[99.37283518673085,5.006983764950042],[99.73647497943713,4.5027733456510886],[99.72088737779295,4.2236579756249615]]],[[[135.53495632701987,-5.327502639957662],[137.2397216293794,-5.903401132943606],[137.71971682646787,-6.808312762754337],[137.25253396059426,-7.248363755069533],[136.8122601979822,-8.225045753728947],[136.81522598030494,-8.638534261130319],[137.07246695486754,-9.060268139542387],[137.6874599950061,-9.274447642545226],[138.97411611548208,-9.25167113384441],[139.63588412729985,-9.021295751093776],[140.6777235141432,-9.9473338295984],[141.25275608078397,-10.062211133924404],[141.30739474102052,-10.830728445110404],[140.75233795531133,-12.412637985194024],[140.7824225578848,-13.26605202411902],[140.61898245735767,-13.910612910619507],[140.7917504345642,-15.049165101140746],[140.51352342525863,-16.1055950452625],[140.23795200525743,-15.766166363121467],[139.8576860384682,-15.612939925082777],[139.0602278309779,-15.658739899385415],[138.61943244738842,-15.927637955239417],[137.51017451875316,-14.917936537089156],[137.82875428700387,-14.134521312866921],[137.50658695038948,-13.014591638389744],[137.76962818209327,-12.669113631498876],[137.8292930440407,-12.259488969118305],[137.47722177983934,-11.58339560951583],[137.55854135075555,-10.805609052128538],[137.2316307485337,-10.337303218578338],[136.51823432695136,-10.208784512514706],[136.1581522175804,-10.408782773359361],[135.90142679945467,-10.804621883023314],[135.32204117870828,-11.113445176267488],[134.53518760485613,-11.128748892739171],[133.85461619098658,-10.693382586081906],[133.3701009833534,-10.611920787481843],[133.2258769546618,-10.394429608663417],[133.41153085756847,-9.85070840117991],[134.1433533170786,-9.63780702678296],[134.51579104342323,-9.107167495771778],[134.4465487328381,-8.540690957702967],[133.91179414789565,-7.944103763833111],[133.85085074085316,-7.646195095239239],[134.3553928237531,-7.708295592950158],[135.01066302803991,-7.551386564212048],[135.6231284615111,-6.784917349908593],[135.7174801814196,-6.202557678882679],[135.53495632701987,-5.327502639957662]]],[[[128.61329505017716,-13.907671221748167],[127.87944508854274,-13.227847142238167],[126.87026461612545,-12.893367385311937],[125.78581238012403,-13.094355209195001],[124.67401707726496,-13.742270025717875],[124.99766761486514,-13.189647352701044],[124.99406438948438,-12.630827484941932],[125.81842746446414,-12.185085617578174],[126.13805074865762,-11.498051623455183],[126.75712956393124,-11.394087357098718],[127.11464748667797,-11.06298893176779],[128.0821408691404,-10.789753162883986],[128.56121382286545,-10.398533833456463],[129.63565846991887,-10.761785161086324],[129.17334649990042,-11.670247323004716],[129.2235434912794,-12.082878628492926],[129.45990954499248,-12.419061463652518],[128.61329505017716,-13.907671221748167]]],[[[122.4414286163324,-15.710893155871146],[121.71072656642266,-16.499269033559244],[121.84121648167795,-16.072738573584207],[122.27328137081261,-15.590807040359145],[122.96085696903445,-15.12628002107937],[123.55676776930402,-14.951943102323893],[123.48644682283935,-15.332010652206542],[122.4414286163324,-15.710893155871146]]],[[[121.32067230344141,-17.692881307759475],[120.57118801422668,-18.816303257906554],[119.52699768269873,-19.186332407146637],[118.83291156985581,-19.158296816564178],[118.11952844753935,-19.504156760826532],[119.4485604908125,-18.764024408461726],[119.86088081666053,-18.77031145652798],[120.67368982445248,-18.41709877578672],[121.32067230344141,-17.692881307759475]]],[[[129.45549620684807,-32.49923820861975],[129.63479668204462,-32.4817884302301],[129.5668183503748,-32.50467736210307],[129.45549620684807,-32.49923820861975]]],[[[131.17505714682224,-32.52000552401494],[131.0068847787124,-32.34825485653658],[131.44334051715657,-32.5777312384468],[131.17505714682224,-32.52000552401494]]],[[[146.44753903778584,-40.26965829306983],[145.727638601456,-40.09016620902107],[145.45562891276927,-39.71422201505783],[144.87936614140744,-39.535193782013835],[144.80976461287287,-39.34891168852065],[145.23094623939164,-39.402077161970766],[146.19838613842495,-39.97208600689561],[146.91038041116212,-39.81994402550039],[146.94596664223428,-40.13090436429175],[146.44753903778584,-40.26965829306983]]],[[[149.94328028398178,-20.420417350612286],[150.08913731383137,-20.500379723856078],[150.38391872743313,-20.784892416300696],[150.03080823014065,-20.802274774839105],[149.94328028398178,-20.420417350612286]]],[[[151.12535960065935,-21.33998833833772],[151.92143718799613,-21.526201787569867],[152.15281712367283,-22.244739696918778],[151.67475082239062,-22.66973202675584],[151.12535960065935,-21.33998833833772]]],[[[108.63781838733549,16.947770986364684],[108.23550666653854,17.084389823435778],[107.31991341518003,17.95911926695732],[107.1239069973452,18.621181845191074],[106.5584517733061,19.096907774758584],[107.35652278577666,19.91319650343379],[108.47658187527932,20.441341905734753],[108.43164012547251,20.159404827643844],[107.88566004040034,19.690865006673924],[107.77942488641962,19.210333155305324],[107.97608428471393,18.046086759741307],[109.039302937751,17.46151741956675],[108.63781838733549,16.947770986364684]]],[[[111.8689534022082,19.80116229655994],[111.43464312375392,20.683304345035605],[112.93362135687748,20.739767153389508],[113.6468697886797,21.12538366686347],[114.60701001999153,21.25217870903572],[114.34257551620476,20.960140167690447],[113.11152012969177,20.73812617104945],[112.56009418022704,20.19506828093124],[111.8689534022082,19.80116229655994]]],[[[115.07742467795923,21.69791578708547],[115.08792407593204,21.72050082580451],[115.11087815135188,21.725787689554743],[115.07742467795923,21.69791578708547]]],[[[118.05146964409549,23.02216363278615],[118.11669135121242,23.047515088288645],[118.02938048494654,23.00941845120932],[118.05146964409549,23.02216363278615]]],[[[122.85488518140444,26.613168289786053],[120.61110430850609,25.830741534081916],[121.13883489739004,26.603280695712073],[121.73463597846725,26.882672283427617],[121.95281542229189,27.493892747547278],[122.33333445536549,27.827423866070312],[122.44955441887161,28.386317265293474],[123.20675733941525,29.58060777130826],[123.377731050894,30.77999242615444],[123.18817892081921,31.243620412780036],[122.82687051463475,31.501699644511508],[122.54637629138472,32.39712053190918],[121.73137236640291,33.16760472137035],[120.97672090660853,34.764198104282016],[120.53758009400839,35.12551718654859],[121.13840385943406,35.43699271857209],[121.58238517294782,35.892488636416495],[122.55692329147604,36.006678113279484],[123.147414939043,36.33864056173106],[123.53661676323557,37.46237169639057],[123.3603437010243,37.93018272287451],[123.0195283347598,38.19205162882236],[123.55370844032413,38.27557846639878],[123.97383175249361,38.710327669284425],[123.77404438150121,37.976263943579234],[123.97664281785198,37.38705844804529],[124.40586278360618,37.0174540445463],[125.28192476842018,36.829185978790775],[125.56929685642653,36.08778337924255],[125.34718346288267,35.5287081482795],[124.7598409908726,35.21414497428295],[124.35238604524773,34.50247790940353],[124.32507225024474,33.70824389947991],[124.77333469512864,33.27730747034347],[125.31568805196683,33.21720914078659],[125.49239118039286,32.776105109303685],[125.81189522662004,32.52583138979143],[126.58292310365414,32.3909492292851],[127.1991573140528,32.540757112535],[127.51853961330784,31.882122972997152],[125.97158485200309,28.671781510461653],[125.46679631350837,28.238851824368417],[125.1077622379493,27.566600608963487],[124.41508972184566,27.33464000978257],[123.40398739651563,27.397367045932025],[123.01708857433815,27.0958317105065],[122.85488518140444,26.613168289786053]]],[[[122.70227995337268,38.25970088811021],[122.51450402656008,38.31656276817039],[122.82780811508978,38.24721473686984],[122.70227995337268,38.25970088811021]]],[[[143.8122294240931,48.39173126682038],[143.6343613673205,48.32507154095652],[143.67041006729795,48.43055322699966],[143.8122294240931,48.39173126682038]]],[[[141.4621838441579,54.19897651877778],[141.0285698956409,54.37506145036532],[140.53910566911227,54.859973079695564],[140.79902645808414,55.28829315957853],[140.85198128585822,56.08351890926598],[140.69082008899582,56.46142479988839],[140.262054369863,56.80509374666191],[140.99257207586922,57.155102710604865],[141.42548884060355,57.66361285579765],[142.6454458070529,58.34977903976106],[143.93994747309793,58.54085339707542],[143.4059518524741,58.222611325437725],[143.19037694226395,57.27730734056878],[142.2231923279409,56.174804322731006],[142.16579526295993,55.13988079402617],[141.61925331366436,54.80427260321981],[141.4621838441579,54.19897651877778]]],[[[146.25801328738748,57.51999121241197],[145.31353318612022,58.3514268592651],[144.19948233278424,58.544173067671636],[145.31943559961974,58.5584982181872],[146.01417851004337,58.28964023262464],[146.85414520550304,58.517622519888924],[147.5219822048968,58.38788618952217],[148.22308138564017,58.532722441198246],[148.99637336983685,58.3203233400235],[149.72849456218083,58.59445368408308],[149.80682786908142,58.475834373973385],[149.1751840678309,58.002549630564474],[149.10541814223026,57.04096361159773],[148.7379835595069,57.49898769528203],[148.36073033295892,57.669176530784384],[147.06147564102838,57.41425240639671],[146.25801328738748,57.51999121241197]]],[[[139.00164387481797,55.41671606320124],[138.70704272090686,55.7262585276658],[138.9996482920255,56.04531332580251],[138.98122016209155,55.82542688152067],[139.00164387481797,55.41671606320124]]],[[[150.61075085545983,58.16160077482081],[150.6187080300441,58.16689616534017],[150.62429924820157,58.16816266323809],[150.61075085545983,58.16160077482081]]],[[[157.90504238036905,59.22924822597602],[158.21620548393966,59.72691787841773],[158.20783193626895,60.21841859797363],[157.92875666566152,60.62309138796569],[157.4283919558757,60.844741278966836],[158.95054569441956,61.03850987899212],[159.06693223377394,60.49669072011323],[159.59023791845073,59.97340742010116],[158.7312956094835,59.17638056907717],[157.95704146734192,58.84678041259255],[157.90504238036905,59.22924822597602]]],[[[120.33298766650087,39.26699037298264],[119.785837992098,38.41628495882724],[119.63967076588597,38.59637982865784],[120.10630273532097,39.18868502043867],[120.33298766650087,39.26699037298264]]],[[[117.95878791992553,22.971337134664008],[117.83782267957285,22.900497446707703],[117.89112138719142,22.942210335457972],[117.95878791992553,22.971337134664008]]],[[[94.98072087687682,14.948648001845664],[94.81245773623796,14.93728852539012],[94.8069593002098,14.942395357689536],[94.98072087687682,14.948648001845664]]],[[[-15.574927486422336,10.145094285435311],[-15.770851177200685,10.21806376488156],[-15.666739240653582,10.239372374303988],[-15.574927486422336,10.145094285435311]]],[[[-5.931737799848995,48.17531024630735],[-6.842882331762977,48.41752250907646],[-7.21555680377077,48.76925620223722],[-7.7738399749938365,48.985105337320874],[-7.787297891784579,49.653914684650566],[-8.261042341532018,50.097968996696345],[-9.230204604995118,50.254112851280595],[-10.09724328721366,49.96134254154617],[-9.926892037360979,50.60301018259852],[-8.391481056149544,50.772435124375086],[-7.320607983767878,51.26718129546921],[-6.030928825601366,51.40122532757092],[-5.759357236797562,51.05384177999858],[-6.137458436272494,50.787501993887986],[-6.860911051390971,50.6428646022124],[-7.123620169213719,50.31417377940847],[-7.1964903215891844,49.899754090595906],[-7.010014022418493,49.42016497630493],[-6.628903688621335,49.12607619960319],[-5.564911336197897,49.19619017252222],[-5.936322842020662,48.74238101593395],[-5.931737799848995,48.17531024630735]]],[[[-10.872313624906548,52.92525291851144],[-11.036839578751522,52.87825535384028],[-10.911932044569761,52.98660276129122],[-10.872313624906548,52.92525291851144]]],[[[-8.32351027572522,56.00908234647906],[-8.19400720288098,56.39193295684894],[-7.7851636839900085,56.13537082833463],[-8.194239494255218,56.00735399344452],[-8.32351027572522,56.00908234647906]]],[[[-1.5039710404417503,56.46489746223229],[-0.9814661132012897,57.13094194537579],[-0.9399476441131979,57.69959340136829],[-1.3252884209921791,58.297805396918044],[-2.0578570997764545,58.50430507797857],[-1.1570621243067976,58.80460628528542],[-0.6643647241728725,59.26245518529646],[0.015080788803937484,60.23866991389839],[0.08351138805095816,60.768016628184284],[1.1278476377862372,60.90725147698712],[2.398498234066851,60.15527871326325],[2.5061013949956195,59.35325620060134],[2.967417731481678,58.2202652729339],[3.268118504758937,57.89764452007481],[4.434305707978995,57.3400537828173],[6.336634182232922,56.78634549385303],[7.345414804919083,56.68485367899973],[7.245423704141682,55.53070129714563],[7.446273867866258,54.924507120113404],[7.119166098569525,54.57104626179428],[5.051416820286012,54.23287513924285],[4.527185712305145,54.0051970041181],[4.015534409026415,53.53897321875717],[3.799798191131451,52.876342058612714],[2.808082079489286,52.10593878212872],[2.493220081740893,52.023242564058386],[2.6181041520676898,52.558029684624465],[2.3539614409219025,53.270416580584836],[1.7191359732977771,53.67761026824063],[0.9665849613344943,53.82307601852356],[0.5559182397929127,54.68116059726442],[-0.12658424610361324,55.206787338206766],[-0.5994359520684787,55.35829017266664],[-0.994017081762831,56.148088818273166],[-1.5039710404417503,56.46489746223229]]],[[[16.015814587012947,55.23012059507513],[15.992550802640642,55.248559924425216],[16.072488051359933,55.265939139008154],[16.015814587012947,55.23012059507513]]],[[[16.288154684195597,55.355254865510666],[16.316757231308006,55.375951474681976],[16.353789466029703,55.372257685380546],[16.288154684195597,55.355254865510666]]],[[[16.90424330828288,55.51485384042177],[17.525901582305803,56.33404807930458],[18.18095070723962,56.07307542306221],[19.209697129610532,56.57181080138982],[19.607375161566434,56.33065300456843],[20.157839485363134,56.33691272049939],[20.182126472701913,55.808776102863035],[19.663023157483536,55.754575762560115],[19.236171782932363,55.379834442454225],[18.22773785697716,55.68497493936057],[16.90424330828288,55.51485384042177]]],[[[20.97095751456568,58.034527750302914],[20.603100021234695,58.260509110907805],[20.1769773387482,58.28253495123625],[20.113702698204833,58.70078379202214],[19.78187090235399,59.21510438601808],[21.21244492213251,59.104071289212975],[21.005040167710575,58.70598439041763],[20.97095751456568,58.034527750302914]]],[[[39.74187551434476,69.0125930382955],[39.60837056550008,69.4933990940866],[40.466259481051374,69.69866830825625],[41.25515076491376,70.41875185160649],[43.55990761874946,70.44410838795491],[44.488548316338374,71.04844643140744],[46.3765833104152,71.23318661179023],[47.949510427272,71.79986606447777],[48.8865110784354,71.56489122462497],[50.59579724329693,71.79927647513485],[50.77439768546899,71.20380292585959],[51.42562031953439,70.71408025024121],[53.08911934606829,70.04301115935837],[54.36228994484011,69.84283793016826],[51.12601312707762,69.35003080947794],[50.76337722257137,69.82986755151023],[49.48887050339775,70.32976055502536],[48.2863594045628,70.20038219172356],[47.656727402526805,69.71349493725259],[47.390537624245724,69.08398571972768],[47.53636641524587,68.39156237230405],[47.39472165947426,68.32022532018453],[47.00405212072657,68.84136865519085],[45.8140865296504,69.33193894701489],[43.12764990961489,69.49521766811947],[42.648048111755564,69.19082224137239],[42.46990805666134,68.7349760224835],[42.61604053874884,68.18605001835053],[43.12094850950349,67.82885811321452],[42.9573365688818,67.534143881412],[42.12733885329374,67.54650625958217],[41.47229662029092,68.40959540707789],[39.74187551434476,69.0125930382955]]],[[[36.805520996333065,70.34387425519557],[36.83522508932567,70.16966545012093],[35.873866620015924,70.55749339822734],[36.805520996333065,70.34387425519557]]],[[[57.810492107207736,69.6612703632841],[57.17145791483862,69.41472481520931],[56.192656415791035,69.41447806851731],[55.535300561109025,69.78058625024386],[57.1064462860579,69.65350552880953],[57.70202285867034,69.79483762484956],[57.810492107207736,69.6612703632841]]],[[[63.80711782215392,70.4360617388263],[63.637232250717936,70.87473308662523],[63.13150435278747,71.36866771375509],[61.989562710351386,71.65540505248035],[61.498405132744246,71.5304925006614],[60.91413760761215,72.09599674582792],[63.627408898334245,73.04863330867884],[64.06651039132034,73.41416142098586],[64.66619115983704,73.42553675009393],[65.30179351123122,73.84643930048661],[66.598335899605,73.73171596362472],[67.5684864083159,74.12635242983325],[68.28414755195766,74.12061712332716],[69.54617415758527,74.5325348298736],[71.40776418443029,74.61700754242298],[71.77191197895776,74.81868120025617],[72.15260458361676,75.33031633471104],[73.1255244634702,75.5639328616678],[74.43986155952409,76.36452862747153],[77.56777919241074,76.4862493846224],[79.03401304708862,77.13623771919542],[79.27177382579058,77.57501321522115],[79.25097075239384,78.1845005725942],[78.90199625763582,78.64726199468527],[78.1815318236358,78.87715314168676],[78.46358852955248,79.52702596078025],[78.20588132031904,80.11882790619525],[77.77133435795811,80.34424900008905],[76.12705224014242,80.49513546471078],[75.43877653911235,80.2375319842934],[75.20053196675205,80.29374671515116],[75.24366058110868,80.65229739256591],[75.37372135903216,80.68810782978032],[78.12823958257445,80.76914731077616],[78.41745348822108,80.20067347158152],[78.94821919144006,79.99300684714191],[80.57595120528245,80.10157519093771],[81.0992854798862,80.40874722318058],[81.45339138529924,80.27497943992354],[81.96723057756415,79.60437835691981],[82.79283732885304,79.29156137767636],[83.21353756395852,78.66881176914458],[83.98133605043559,78.22531006584252],[85.35022113347046,78.7507427285203],[86.81155516971698,78.1775760830699],[88.18138477588982,78.06773128783952],[88.98126943684075,78.17885537213111],[89.54866762865035,78.52359803465592],[89.68810124977176,79.20118099395751],[90.02043868608826,79.21094753285588],[90.42400838964298,78.79819492830421],[91.512742665416,78.600412293203],[91.66293411755323,78.45319505601225],[91.22073502464524,78.1819674938099],[91.02160532948231,77.72629954684595],[91.11147400271867,77.23720902868314],[91.459582211211,76.88209413380223],[92.43526796433746,76.82613521723992],[92.83582020297602,77.17869276793978],[92.95929909570681,77.60628430314897],[93.46055644140425,77.33318881658442],[93.0966500395303,76.944645056964],[92.30573035331582,76.63569912758635],[90.19842392324685,76.45212470562284],[90.63821310087593,76.99117576065359],[90.50408899234453,77.71102615006446],[89.81485276615581,78.13600368525833],[88.96135405332055,78.07569692239049],[88.18679193064534,77.78383584175815],[87.82751537792349,77.23201581472],[87.97015305210023,76.58917876111968],[88.55046901763326,76.17910887616401],[87.85094487658434,75.95910435163506],[86.90943963639276,76.0063757938939],[85.75926306302539,75.62084284019502],[84.89174074966576,75.58052292562101],[83.68776156009987,74.94002917311029],[83.07468287533133,74.9973315561668],[83.7452966943467,75.2208503825189],[84.06903886457378,75.58721322466424],[84.12098677622521,76.15228927432898],[83.80575155930043,76.62413277109464],[83.25304020298701,76.81226389509783],[81.38798837621495,76.76402231061596],[80.81144461930022,76.30346434066331],[80.64320921216297,75.32594619245832],[80.8618435225076,74.79209465425224],[81.48411676087841,74.46298443709252],[80.44231796898964,74.41314715432546],[80.40249756352001,74.91945976990256],[80.09236699802727,75.30443694038118],[79.38252503104853,75.48113523725922],[78.90576445916419,75.4224427786882],[78.49512376407289,75.15135572676738],[78.30349768750554,74.69815222174606],[78.39510124702416,74.21470340535727],[78.76506460715018,73.85042292772482],[77.96561012825559,73.42394235259285],[77.60231921068258,73.47665813875082],[77.18328724283518,74.18960494580367],[76.30409592508823,74.40250920656881],[75.34714451165001,74.35863231163847],[74.66378325585605,73.96621219361609],[73.75732401884692,73.79056238451885],[73.33959032568245,73.39472462221087],[72.3421855406723,73.65099603892881],[71.4596960147258,74.27161201889189],[70.94936706828905,74.36748258449482],[69.80292444871029,74.23888405062614],[68.41595335420091,73.33561307421208],[67.8024824106758,72.40982275529596],[66.60895923202175,72.08884439444839],[66.0228381744172,71.66229436554535],[65.67771833962335,71.21526348060466],[65.55031528069597,70.70174472509068],[65.85711606204539,69.97464351785682],[63.80711782215392,70.4360617388263]]],[[[98.78548188154151,77.34303892295597],[98.36135577382424,77.20997764621964],[98.21903691271439,77.37723378457815],[98.6375090829297,77.47234549401661],[98.78548188154151,77.34303892295597]]],[[[94.45145181191546,77.41996838544857],[94.76791755319091,78.2186176299995],[96.28768832905406,78.09646932826432],[96.39470210547887,77.97871613089669],[94.98374232100305,77.81924803093368],[94.45145181191546,77.41996838544857]]],[[[92.7346980384914,78.19845510645676],[92.74532850272834,78.22810513760177],[92.7439325966282,78.18740377578175],[92.7346980384914,78.19845510645676]]],[[[56.32680233404162,75.97221272671797],[55.57936825665735,76.09894228969519],[56.4595757486427,76.2736362906954],[56.63212456996869,76.14045446572744],[56.32680233404162,75.97221272671797]]],[[[114.21393334373488,74.71897253085727],[114.71947888096521,75.66768597204117],[114.60983423831087,76.30533323298086],[114.9785569571514,76.31964944471646],[116.11711644591395,75.93171169948732],[116.58093853612893,76.11850247485805],[116.98492093832333,76.58125958313501],[118.35625696787874,76.42238528702798],[119.32623838365475,75.87358127407101],[120.56108485477158,75.94426451882573],[121.00639210628349,75.5647392690166],[121.77302581347153,75.43069625463444],[123.80860969506912,75.64094113979719],[124.32666327045416,75.39749411132982],[124.88795056725621,75.38863700302667],[125.62602538029456,75.72353362242997],[125.90401458494999,76.07648675287908],[126.64329930695025,75.52255957990442],[128.2786243700062,75.52718540717679],[128.81984564260537,75.77921206208785],[130.7156084692979,75.19042534880141],[131.7445821016563,75.41636127499885],[132.33719087342968,75.89377927066843],[132.58493375230753,75.80036429470067],[132.59556271451393,75.36714134232648],[132.86972333037198,74.94909214730531],[133.41591985471774,74.75365315819315],[134.0693937676259,74.95973570876887],[134.55887090448755,74.55679709465961],[134.53274306891328,74.0399814952975],[134.78712457109174,73.62574783903264],[135.98358018955315,73.13126038400438],[136.4799890446921,73.10802807814605],[136.9045473026736,73.36631430905202],[137.112134492054,73.81783291365322],[137.0171073738579,74.33459844286271],[137.67803708206145,74.0244062197131],[139.01333657312017,73.81069824129212],[138.96289615845185,73.14509932531443],[138.4662935193697,72.81522923640257],[138.2668369213286,72.45091808521349],[136.7210272255129,72.32231302427108],[135.95641343619855,72.48434825791774],[134.47156102805639,72.26105851443108],[134.07479373983128,72.31384284282926],[133.31728253623254,72.78338363921081],[132.65682685451077,72.79404587169304],[132.21951744141634,72.63487831714194],[131.17025337678433,71.72576643686895],[130.39100112024033,71.78754717520444],[130.2732146174792,73.21357291330503],[130.02715825951168,73.64688676065983],[128.17979619105765,74.33334214630852],[125.88375435724801,74.34213729390284],[124.4675290440697,74.79310835478553],[122.99899066598773,74.42759610142426],[122.43302917919614,73.79048015430661],[122.16338312387239,73.7782170975572],[120.7343726038153,73.8177382599898],[120.15032786737831,74.00837210338398],[119.69568870279312,73.97599929271209],[119.14650030901822,74.32821072656536],[116.95607473321184,74.49928646175883],[116.6658494726233,74.97883274637071],[116.11381673774378,75.2234760152024],[115.43548459436596,75.05524200640686],[115.06999596174053,74.52890365433986],[114.27791072676733,74.44530403995688],[114.21393334373488,74.71897253085727]]],[[[144.37402269553849,73.48890426482794],[144.0006149990426,74.15057315921287],[145.48788460452795,74.6239165312916],[145.89873202144284,74.40810494735128],[148.06661427308504,73.96010880080624],[150.77901055724706,74.06063024815262],[151.6335251213251,74.6263833299533],[151.78275453962175,75.34801483088751],[151.58423807253237,75.71707996304428],[151.23350658251755,75.94643837555952],[149.87383874135625,76.02653860359246],[150.24396129305882,76.45626431396899],[150.28326260893297,76.95313832229195],[150.03725260440353,77.38662125303755],[149.59052071242385,77.60766195124629],[147.93697495704262,77.32045476630104],[147.6124629803566,76.8556113026901],[147.67389221785066,76.246648870817],[146.41917000956857,76.44657634856055],[145.86238144655567,76.22266737602183],[141.4435881898548,77.02392284505967],[140.9297422927485,76.9435468419285],[141.072634011566,77.99243159067406],[141.53472942303824,78.46962770053683],[142.658238771575,78.34072448362896],[144.1156819462518,78.81355063264323],[148.38733801392976,78.6742388236317],[150.416594355402,79.00775574448333],[152.00850918800293,79.01656058315916],[154.13438082234939,78.77423843405218],[154.21143915581587,78.27775470480026],[154.54286990182857,77.91945674738479],[155.95647260961636,77.75806895555411],[155.68042490651357,77.3518194920843],[155.657564968388,76.93480345457144],[155.89293442838024,76.49491436288783],[156.25255410428093,76.28254995669153],[156.83534678404084,76.25389067400997],[157.23128307931324,76.45443022612511],[157.52143604571452,77.04345641973808],[157.32396952466348,77.64052307837578],[158.18081843364408,77.86592796349599],[160.36657365990777,77.38815416384236],[161.308568942468,76.96986536694973],[161.91333912441797,77.02838449282973],[162.9290215451401,76.25244186041249],[163.96749365753095,75.7883804999611],[164.46903986785006,75.82041101188028],[164.8526444579233,76.11432495600404],[166.59451813749186,75.53666418601003],[167.42571076913782,75.50206979299712],[168.77431046694733,74.770563583984],[170.0779165609231,74.94253157168562],[170.5442206033233,75.35397783115445],[171.20889857033197,75.07928263112171],[171.93744003337508,75.20998092350902],[172.31144281910792,74.5867069254916],[172.75166282070194,74.33534881996546],[174.2384895788588,74.54821867210705],[174.6301289943555,74.34487939859025],[175.407090317579,74.30420813840863],[175.74338054520464,74.11303440655986],[176.01441952094677,73.70511160201092],[175.89653790037153,73.01432889724728],[176.29729957031273,72.4924874979716],[177.14903408212868,72.38271244973045],[177.7887633459772,72.90050053243493],[178.42025472174552,72.56814899755364],[179.15,72.60875502451688],[179.15,72.13816106857924],[178.26361187281967,71.82164965174437],[177.89951203307612,71.4984027404938],[177.77871463742156,70.94632743923147],[178.06599914277183,70.36207202245724],[176.1855079560313,70.7418110651488],[175.42692415477364,70.65725051347596],[170.46069496082504,70.99177765322511],[169.7697759901486,70.60619584313599],[168.2300007992532,70.87340842316326],[166.78051451834625,70.35036140073392],[164.95570119276357,70.4137006182969],[164.15642252506058,70.61392408172688],[163.3311045454341,70.5951707521815],[163.2412675602119,71.04046211357672],[162.97290444584004,71.34954146308425],[161.78383977719537,71.65375233483384],[161.11215267242883,71.5786302031037],[160.3242677176235,71.7601208014247],[159.8069802650757,71.51476604694193],[158.0732282507375,71.89333915630473],[155.9578301161387,71.94908038952127],[152.69300006551646,71.65862546035184],[151.7857984140998,72.1309298960811],[150.80306187125257,72.32958710281216],[149.935801920357,72.9441848777513],[144.37402269553849,73.48890426482794]],[[152.21586373075684,75.35987489386018],[153.28996752477536,75.38402433570693],[153.60246038924015,75.66966887062974],[153.68263570081587,76.46430891675381],[153.1625669556903,76.99207200902555],[152.2576671346398,76.93570128394227],[151.77950584481638,76.487666458494],[151.7621291130405,75.83263098381127],[152.21586373075684,75.35987489386018]]],[[[18.30390656549263,61.37133793778693],[18.339670754424574,61.73272671407917],[18.755164303431386,62.102297545065134],[20.225503029471806,62.7223017408453],[20.55291447558218,61.481086017731705],[20.381362287594612,61.128741986138145],[19.71048885310687,61.24239862234517],[19.146618658847203,60.951853148146334],[18.742610755799316,61.275983661944686],[18.30390656549263,61.37133793778693]]],[[[22.44597573534138,64.57982257106583],[22.841127856031246,64.6985139416437],[22.76355246855324,64.62341650112864],[22.44597573534138,64.57982257106583]]],[[[31.16546668942057,45.521160787164696],[31.125193451285075,45.51283080947445],[31.14422202280158,45.534374866429374],[31.16546668942057,45.521160787164696]]],[[[11.867741315000234,34.06327564089609],[11.88549935179771,34.11533352116917],[11.89958925426589,34.13023642382391],[11.867741315000234,34.06327564089609]]],[[[12.170176402508359,34.69316564263281],[12.146744143582591,34.70644747010987],[12.145118195354401,34.778470422444826],[12.170176402508359,34.69316564263281]]],[[[-179.15,62.5011413273693],[-179.15,64.46458246172188],[-178.86872197412228,64.72782046439059],[-177.44193177240354,64.5911464239173],[-176.88945391370527,64.7316841981159],[-175.62624870913405,63.94885112184559],[-175.04324753083594,63.970986437772105],[-173.24859617525448,63.402981642856965],[-172.70044850459092,63.47181489299923],[-172.4340223680517,62.90087070357413],[-171.6539684356535,62.49731823845318],[-170.9197439940906,62.56656673268712],[-169.72692924211762,62.09738879522706],[-168.4824304844189,62.386535960604974],[-168.0179061602795,62.77609339289775],[-167.8498342771807,63.14930868977155],[-167.90440695442084,63.635295420538576],[-168.15106779540739,63.96193933251733],[-169.67683983254307,64.2698411069302],[-170.15561912293472,64.5345297394169],[-171.22594510371337,64.52003823171516],[-170.25691553320067,64.8217674602959],[-169.7069462055528,65.18492080259158],[-168.94299161906244,64.89449491510852],[-168.77782071223078,64.45682961882233],[-168.3656571906412,64.15674846091363],[-167.8719989606377,64.13237626786044],[-167.39602469551846,64.45056551210216],[-166.47635381114577,63.784989960522424],[-165.29693449435007,63.623356698913824],[-165.6604395476819,63.1841926163316],[-166.73427595081642,62.46755571770494],[-167.0352483405979,61.715943570933874],[-166.8864140323787,61.09107894107306],[-167.70388684318394,61.02930826537809],[-168.1672037720152,60.67784911952937],[-168.29613809103927,60.11078470597465],[-167.96535720084898,59.53913363048766],[-166.23519048870602,58.907954058130954],[-165.27718418857177,59.181804359178884],[-164.89644534809779,59.48041731089197],[-164.28042144501538,59.00635951871766],[-162.9149257554849,59.063501080435486],[-162.99007949325755,58.40025662345193],[-162.50729252848777,57.862120297652076],[-161.04730506748632,57.69734718521476],[-159.77025475149452,57.927448500969994],[-159.3410729951625,57.62618660693019],[-160.57750561485423,57.142777332638055],[-160.93470842182262,56.840809898544904],[-162.05815857650734,56.69956332416623],[-162.90803403480453,56.256903150371485],[-163.45010208107865,56.233561331385275],[-163.8545137618653,55.904363510595964],[-165.09477225309527,55.525129894959555],[-166.83199731399114,55.76888500835769],[-167.50505993689413,56.09998752272755],[-167.7013601159756,56.55206048623509],[-168.08457553225247,56.919918029513255],[-168.79024762914182,57.0961844543373],[-169.2720216656568,57.417565848774174],[-169.744394009159,58.020371053751305],[-170.63523444011443,58.017642226361936],[-171.1746342060667,57.5427032405018],[-171.59899210673817,57.816226359849075],[-171.72003176318782,58.272888656207066],[-172.0722529437502,58.681874242654544],[-172.10485254569508,59.47081681128935],[-171.62636824363025,59.69415271771411],[-171.3666420067301,60.19657576463356],[-171.44078885175534,60.678177491198866],[-171.76725356225492,61.03992155881615],[-172.79415465930043,61.48508139958007],[-173.28649581648494,61.49847503038047],[-173.8865869360165,61.006554092371246],[-173.86966943406455,60.250447637953776],[-174.46164248524903,60.02625403216367],[-174.78016534712654,59.51932701472717],[-175.58156792740434,59.81156088537287],[-176.11198296522377,59.69052608388456],[-176.79459842891367,59.984097680884645],[-177.1795476007432,60.437399588144764],[-177.66707771822607,60.541483648398064],[-178.05404009568826,61.81392399141948],[-179.15,62.5011413273693]]],[[[-67.41872508134782,-52.838222728029635],[-67.58385655030666,-51.99810615330858],[-68.25357591963021,-51.01478609993254],[-67.3279096371482,-50.630113575707966],[-66.81178557586883,-49.56185454449581],[-65.25676518490998,-48.63213474971893],[-64.9196846902434,-48.06294218776217],[-64.89994793717541,-47.11168534086974],[-65.09323762109209,-46.658422966463846],[-65.42685732271583,-46.41590804712813],[-66.54595393677104,-46.13991106572888],[-65.02540702693823,-45.62218107874777],[-64.41768431280472,-44.65585590785767],[-64.42386632318876,-43.94631394993084],[-62.984468875070895,-43.315378032459684],[-62.77931245421858,-42.874893537517494],[-62.81877934326584,-41.96300932777069],[-61.66473812179291,-41.391859112772856],[-61.20162842395509,-40.651744101839206],[-61.232037109550156,-39.84505413881471],[-58.1052592680826,-39.31225749428443],[-57.11664231297547,-38.84703992501031],[-55.879095837765966,-37.193578976074775],[-55.905749810387135,-36.156764597595206],[-56.07699709283688,-35.78646123239715],[-55.6541922441514,-35.659491593870435],[-54.871624277382736,-35.81894024759047],[-53.88804166558848,-35.47660392922822],[-55.8743916152236,-37.420902670820794],[-56.64984130605381,-39.20206109036138],[-57.98265780273457,-40.63964357820089],[-58.145767042337916,-41.027633855596],[-58.71143735188669,-41.494547676034564],[-59.60427748281675,-41.72474285140713],[-59.940633635119674,-42.27952391930943],[-60.557485417067525,-42.552935705879484],[-60.97487817409123,-43.041741412309804],[-61.22497279725454,-43.88004436923723],[-60.839556812509365,-44.52948290343246],[-60.91531253139521,-45.28716854624371],[-61.36102986112019,-45.64164691324474],[-61.64249540621375,-46.43172964392773],[-61.9747449025481,-46.818606744162146],[-61.972223465214604,-48.06529922236822],[-62.25628209933806,-48.648354040251036],[-62.763803532696954,-49.16165836074161],[-62.80010977698736,-49.862476789964255],[-63.62150203146432,-50.734984000227705],[-64.21039378728491,-50.987230804473974],[-64.45465941182418,-51.446740133830225],[-64.8682658247877,-51.67529008881442],[-65.32033346581744,-52.34360834096896],[-65.40561961829604,-53.12764484961527],[-65.05150870126296,-53.801396730730964],[-66.22424743055277,-53.642932824932245],[-67.05650720376461,-53.21673858521132],[-67.41872508134782,-52.838222728029635]]],[[[-51.26759233638703,-32.60030199388676],[-51.334805135743714,-32.74879607660176],[-51.48308466286869,-32.8170197031411],[-51.44217819830517,-32.74485766254053],[-51.26759233638703,-32.60030199388676]]],[[[-47.72578368682293,-26.7560743688917],[-47.699117440212916,-26.136391736609426],[-47.222629956404326,-25.587137679950004],[-46.52062300331054,-25.01868240684454],[-45.62663647440475,-24.732532807767555],[-45.74769723352689,-24.912352592040513],[-46.335444382694654,-25.03561992899589],[-47.2167960402931,-25.73471639665292],[-47.72578368682293,-26.7560743688917]]],[[[-38.716202647343586,-18.624236945135955],[-38.83940159317781,-18.628272719872236],[-38.6731647032565,-18.439216462393997],[-38.716202647343586,-18.624236945135955]]],[[[-47.75004379732573,0.28258605422614125],[-48.74735002410758,0.6837932549168658],[-49.046851848770196,1.0526756175828615],[-49.18353655406034,2.0875479874649328],[-49.995698649852635,2.8943675202613837],[-50.166613318078326,3.5193008674283157],[-49.3875320118986,3.109690504759326],[-49.106754415762445,2.5826348171218267],[-48.65172881245744,2.3595572145689614],[-47.03852807890201,0.5626798885917854],[-46.14326939895058,-0.06032366229600148],[-47.75004379732573,0.28258605422614125]]],[[[-82.4392257660764,15.489973078422032],[-82.52050924638499,15.589031068176176],[-82.71828122332823,15.792788578282927],[-82.33843293499889,15.77329837465419],[-82.4392257660764,15.489973078422032]]],[[[-87.84404233309888,22.425659385436717],[-88.80124977014557,22.335153689143077],[-88.82603736371871,22.572313716587864],[-88.56588972394276,22.889273760125423],[-88.02542107144336,22.96476273369274],[-87.84404233309888,22.425659385436717]]],[[[-90.94208224624846,21.625151961546095],[-91.25499447127676,21.042748745506348],[-91.27418839968138,20.34717643477942],[-91.41614444132435,20.171212946470288],[-91.61659499933198,21.427456812841275],[-90.94208224624846,21.625151961546095]]],[[[-94.17889853201254,28.66965799360835],[-93.26379028040068,28.909810668844166],[-92.75465294218934,28.772679742221037],[-93.55345706300125,28.60545744846146],[-94.17889853201254,28.66965799360835]]],[[[-84.55844292199409,28.883998933457598],[-84.0953803316385,29.113037353543582],[-83.58280124543147,28.467463474301514],[-83.69233616157092,27.818380640245106],[-83.53531992107771,27.2452723503951],[-82.92242720657234,26.052227498403916],[-82.40451853515232,25.402114224503432],[-82.7307132074977,25.20900292947763],[-83.20414873691377,25.323120939825465],[-83.53612707968435,25.69978180621757],[-83.57815795208363,26.60110570248053],[-83.96360643724788,28.164480726537608],[-84.55844292199409,28.883998933457598]]],[[[-73.24459241691035,39.6956011497228],[-73.21261044090146,39.784826941899354],[-73.1125454253429,39.79396985067034],[-73.24459241691035,39.6956011497228]]],[[[-69.20043249660236,40.88482762552339],[-69.15119478843626,41.01362330307861],[-68.72105270532312,41.00837942353528],[-69.20043249660236,40.88482762552339]]],[[[-61.15577038223618,44.388963445292184],[-60.85576881440441,44.42916300956574],[-60.836124451697785,44.43278213892378],[-60.94451790783727,44.202877801938705],[-61.27054322736543,44.135696767067756],[-61.15577038223618,44.388963445292184]]],[[[-59.487643753502844,44.95084187854888],[-59.814715836799614,44.85758699649846],[-60.263209608941466,44.79912339270058],[-59.65313886179325,45.077929641295306],[-59.487643753502844,44.95084187854888]]],[[[-62.85501162405623,47.31533573161329],[-63.18629272145316,47.31934116608256],[-63.62999207641033,47.8866647393721],[-62.79613990634597,47.54694421700071],[-62.85501162405623,47.31533573161329]]],[[[-55.61852394391677,46.01301985046665],[-55.77139999678942,45.875042601816695],[-55.84858340875443,45.969522651592605],[-55.765657822523146,46.005714258345535],[-55.61852394391677,46.01301985046665]]],[[[-54.14526314897103,45.875351392298874],[-53.518222265367406,45.76913567188321],[-52.74707179255367,45.87700836493206],[-52.20410138827005,46.368152099876],[-51.857268597791204,47.322661837461375],[-51.09459443676617,47.27719651893653],[-50.59748155648306,47.74315034620814],[-50.204054331882965,47.393903073095],[-48.40029116384352,46.661743788112425],[-49.26310576900074,46.13627529416682],[-49.82771304154754,45.40394598384466],[-49.97528950927607,45.035924727409146],[-49.93396472947431,44.48759912517388],[-50.29532609924254,43.735373894614156],[-51.49028192870314,44.23994096883088],[-52.65812091817519,45.1808836460811],[-53.713929242336164,45.46456754767701],[-54.14526314897103,45.875351392298874]]],[[[-62.24731882443323,59.28866437312174],[-62.13622427495983,59.23681649334974],[-62.16832486773575,59.23167410664422],[-62.24731882443323,59.28866437312174]]],[[[-81.39433238864014,55.16536701139851],[-81.64230509628426,55.70989012678167],[-82.13263499589816,55.989091438949345],[-84.79854712267446,56.132784545836984],[-85.66178840501787,56.47672797889268],[-87.15437602495345,56.77712385272541],[-87.55423612469303,57.17878996488682],[-88.60876196304554,57.665754423791874],[-90.40539151794069,58.060620578328],[-91.76166884885293,57.92169798475579],[-92.60593945346308,59.392604702315474],[-92.96589058608663,59.57289541700003],[-93.84996397795354,59.61847467706899],[-93.9195078715965,59.87270833535503],[-93.10716209840997,60.892305513012545],[-91.56274192165097,61.77526956567191],[-90.51159952078756,61.95736828971831],[-89.44614702187633,63.140723583656886],[-87.98957273184138,63.29356047180039],[-87.53045868095721,62.86739316113941],[-86.9437719223749,62.71512394935034],[-86.35504390469427,62.791969396444564],[-86.13560420197142,62.55646264280903],[-87.69986040201591,62.39093773833628],[-88.61181072762898,61.59583857037345],[-88.63735818848045,60.98236295716029],[-88.85518904911599,60.4759557695856],[-88.80716745176942,59.415266724088205],[-88.56756151459822,58.98726631617544],[-87.97648743664843,58.636073968873596],[-87.27957210153963,58.67270002556665],[-86.79396554218647,58.38510405087178],[-86.28941928622143,58.427252953295245],[-85.6279696679162,58.89478636883822],[-85.23928273478295,60.01533473126419],[-83.89233522896554,59.89902966305723],[-83.25655810622725,60.42507935295989],[-82.39231030709409,60.44454134402393],[-80.8700617416603,61.264378173236906],[-80.07413226610852,60.80005487393711],[-79.54448895026478,60.762134553342285],[-79.54187137928835,60.63970507860902],[-80.19765149623275,60.71355797700992],[-80.92400830367099,60.446778846686385],[-81.39624941271138,59.90830484539242],[-81.430103754704,59.02975084860728],[-81.29627780679894,58.63621218570369],[-80.83759169241797,58.28739664854617],[-80.2570972993826,58.29366209204606],[-80.66231383295262,57.7399757747958],[-80.94930204423254,56.298502596345735],[-80.80931494555885,55.571008981284876],[-80.51585682095755,55.2071766818578],[-80.58978431190583,55.03881472264081],[-80.94038607609899,55.199339909066914],[-81.39433238864014,55.16536701139851]]],[[[-79.76949628129817,58.75265942086924],[-79.67787920070646,58.469074640434556],[-80.02901383396875,58.419358822181906],[-79.88891547885646,58.55477986983147],[-79.76949628129817,58.75265942086924]]],[[[-79.0468190421271,59.706669345959995],[-79.03535015117204,59.9357575453808],[-78.64492620179789,59.866264867634875],[-78.72509461008983,59.79204865160059],[-79.0468190421271,59.706669345959995]]],[[[-85.74301537832856,62.383376788331795],[-85.4603772761773,62.29406244996355],[-85.3203573385819,62.27553082102213],[-85.45531484377668,62.171368477243],[-85.74301537832856,62.383376788331795]]],[[[-76.1555368880814,66.14599847027866],[-77.5954665561776,66.29827760916676],[-78.76134023405488,65.53192379721548],[-79.82342917311784,65.79949666337158],[-80.90476278231529,66.39842807933626],[-80.40853325619528,67.27457052944511],[-80.42192852978616,67.6984597946079],[-80.64062287021002,68.0650544764742],[-80.42073412781583,68.56351149642003],[-80.16482361261305,68.51354421018183],[-79.71639332912098,67.64588112708117],[-79.31201051219718,67.35947732161209],[-78.73712057957422,67.37363638376908],[-78.09516972769363,67.82702992074243],[-77.99768116375155,67.04841859785675],[-77.27196359314736,66.44446129409734],[-75.23457574814555,66.52270309528012],[-75.31841378000212,66.21783504871998],[-76.1555368880814,66.14599847027866]]],[[[-158.23056062598795,71.70192383258988],[-158.74406769976574,71.68049566118671],[-158.51041187953112,71.79535223966663],[-158.23056062598795,71.70192383258988]]],[[[-163.97399390822943,69.90578805586647],[-166.32449271418096,69.7296810033225],[-166.771331923635,69.53496193431783],[-167.58454954518052,68.74089938845607],[-167.60724353190605,68.00945711759844],[-167.2098784436328,67.59147141001212],[-165.84467292537434,67.20118690424867],[-168.42606670709245,66.46728701490214],[-171.50261964865956,67.77290182706268],[-174.1790221073068,67.93705780014554],[-174.96068512221638,68.45200978733811],[-179.15,69.6798118853711],[-179.15,70.16207366837278],[-177.61378632806057,70.25265378159982],[-176.91167205297197,70.57388200588625],[-176.60428662476215,71.10800851666413],[-176.15381986387817,70.63398427611905],[-175.30463105738784,70.55823400765557],[-174.90603965267425,70.83948232165311],[-174.7248592706039,71.37593089565209],[-174.9208232107623,71.90715734223612],[-175.32704891895537,72.17726175915865],[-176.20611980567688,72.16415565736186],[-176.6499815265973,71.5404480021081],[-177.18494383526462,72.04674960819203],[-178.22168082277628,72.37289098440807],[-179.15,72.38882413360979],[-179.15,72.85022666702997],[-178.04181774021063,72.6001274957022],[-175.9041126917218,72.446818895013],[-174.85816305247693,72.7356649942831],[-174.17538441056845,72.65191867379212],[-173.6898740701508,72.92833873597537],[-173.05341171336474,72.7294453647202],[-172.25113951856363,72.92587286846306],[-170.39657396503534,72.83967596338914],[-169.13145298914569,73.24839048822113],[-168.65329231611523,73.09595420750341],[-166.1515833317402,73.07678916844085],[-165.6665765727967,73.2008291186589],[-164.41064301698498,72.99816969624759],[-164.06359111863173,72.69474874544989],[-163.48488876268647,72.64104541567787],[-163.12810310388053,72.26598437808147],[-162.38006369625154,72.1160794895689],[-161.90236206165267,71.80375452212321],[-160.96142953292807,71.61060597429288],[-159.54689021971632,71.66319542184897],[-161.0978475060816,71.13405940553311],[-161.994910427001,71.19721580950974],[-162.7913412816514,70.9658579791417],[-163.5835144075916,70.47810828585997],[-163.97399390822943,69.90578805586647]]],[[[-99.3476682419334,70.50690950512491],[-98.68704073048598,70.42288160540816],[-99.30720629314524,69.96882542088213],[-99.71083034786531,69.8732881089364],[-99.3476682419334,70.50690950512491]]],[[[-97.45760295516833,70.79605824978293],[-97.46388606092991,70.79391854427729],[-97.48524194629631,70.790957733868],[-97.45760295516833,70.79605824978293]]],[[[-97.6227595527222,70.77125182743318],[-97.68956938787245,70.75862488260654],[-97.66500062167495,70.76931115139021],[-97.6227595527222,70.77125182743318]]],[[[-101.75345289235811,74.33170761083088],[-102.0148071743652,74.70171299197416],[-101.3868720197135,74.75935159780727],[-101.20536751859245,74.61882165592635],[-101.75345289235811,74.33170761083088]]],[[[-90.643374525354,70.32373387992732],[-90.73643705664931,70.5107548188597],[-90.43808733606544,70.72383463059758],[-90.01751852450542,70.27741549830807],[-90.643374525354,70.32373387992732]]],[[[-54.74805533485315,67.48424183112581],[-55.440760708959154,67.12467378590578],[-55.58229700800765,67.42421091588807],[-54.74805533485315,67.48424183112581]]],[[[-179.15,-78.79410817740603],[-177.45049082149825,-78.92811831418857],[-176.9389248281746,-79.11936005917345],[-165.15879116508552,-79.45741927391012],[-164.84437655990897,-79.9614092274849],[-164.15319616511587,-80.17498216240205],[-163.8163957825255,-80.52308579906664],[-164.41728520979294,-80.66866404492332],[-164.78766619126253,-81.10968420194908],[-164.76017116574684,-81.76326128095658],[-164.33585367618653,-82.17916594095752],[-164.59140228264002,-82.51085169602541],[-165.00727318041436,-82.35576198630802],[-168.60205822119835,-82.38405314942028],[-171.8094748792905,-81.99703556516089],[-174.40337227371188,-81.9295743632526],[-174.9965144667278,-82.20488196420555],[-175.21862788923414,-82.81992469753449],[-174.93825461642626,-83.41068925653683],[-174.31147062756062,-83.64560204937706],[-179.15,-83.52390593710525],[-179.15,-78.79410817740603]]],[[[-162.1676249432418,-80.48664948022322],[-161.54876640747975,-80.58378927446826],[-162.19575353485158,-80.50741283325075],[-162.1676249432418,-80.48664948022322]]],[[[-160.57389622040083,-80.69887211365949],[-158.82786711403313,-80.61043578732225],[-158.31709873895295,-80.33365461643756],[-158.12492144503952,-79.96118600129121],[-158.13409688479194,-79.54216238277992],[-158.4042404863604,-79.12064545795293],[-158.96286279188402,-78.79435885684231],[-158.69196076317283,-78.75001935736026],[-157.25747209593752,-79.09955102413477],[-156.6539079165155,-79.50751769748113],[-156.67747731206921,-80.01360108722533],[-156.4611658379311,-80.39259733078858],[-157.45306957167864,-80.49509392308755],[-157.9329229396517,-81.1235228312801],[-159.00099626364957,-80.92830418649794],[-159.63398413142497,-81.23823947561306],[-159.99608881738567,-80.83343136520077],[-160.57389622040083,-80.69887211365949]]],[[[-159.75865022669728,-82.11356728321128],[-159.21593727028016,-82.59602035769078],[-159.28521354729978,-82.69374006449604],[-160.79721877419485,-82.68373294623385],[-161.00388092723622,-82.39655099717275],[-160.20383664368558,-82.39730004721895],[-159.75865022669728,-82.11356728321128]]],[[[-156.98284846641232,-82.23635172321474],[-156.9654554070719,-82.13963790611778],[-156.34769686388316,-82.21778997641604],[-156.98284846641232,-82.23635172321474]]],[[[-153.04552278017192,-80.01462609057008],[-152.81310704012176,-80.01357907956346],[-151.82674370150642,-80.19091248655296],[-153.0823495865939,-80.26905063532374],[-153.04552278017192,-80.01462609057008]]],[[[-63.101426600298794,-67.43984607471742],[-62.55135092269745,-67.56949180237456],[-61.62551292473941,-67.31738767469105],[-61.565659861969586,-68.05469606173456],[-61.821243240794615,-68.42248843042184],[-62.02487076517824,-68.35304835280523],[-62.44197080210558,-67.68731739698717],[-63.32593925672516,-67.63005501872135],[-63.101426600298794,-67.43984607471742]]],[[[-61.81380747872261,-75.67221166809875],[-54.53879176240733,-77.13301388546526],[-52.96029612030978,-77.66462682040299],[-51.41677061695336,-77.915661267048],[-50.544191699654455,-77.82704312095015],[-51.01285915127246,-78.13743402083036],[-51.55796137053609,-79.05767189734009],[-52.16751679416422,-79.23668311616639],[-53.58454227665078,-79.27641727766644],[-54.909790218033734,-79.91463451795259],[-55.16479371034358,-80.25675730115147],[-55.25779957516132,-80.74674458126216],[-55.15886812061457,-81.13804459660194],[-54.83979760873825,-81.47117134192331],[-56.14276360356473,-81.65775449417043],[-59.569122370843786,-82.60564353046756],[-59.669318856814954,-82.6017505765075],[-59.56038468182061,-82.04579515375832],[-59.76387145437287,-81.60857540626719],[-58.88353461672304,-81.10944784950951],[-58.44546519222097,-80.30349462173537],[-58.558771990604065,-79.74001848569692],[-59.18394490727532,-79.1437553054837],[-60.132144281026235,-78.80783329278871],[-61.742787928142945,-79.07198807453628],[-62.467890023078816,-79.52290455392736],[-64.70939171296662,-79.53721550329439],[-65.07820076504849,-79.07312963365611],[-65.8526297425808,-78.75694352669247],[-65.82648918668919,-78.0237306368422],[-66.44814648049537,-77.52840127766028],[-67.72048889597244,-77.53393185926609],[-70.73562561497243,-78.04801063526611],[-71.93372993858435,-78.41839210039718],[-72.61119778947509,-79.17980668228019],[-72.55050555052203,-79.90561629356556],[-72.96445006969158,-80.0653763132466],[-74.6382536232985,-79.9793959963286],[-75.09079231687817,-79.70290451114192],[-74.59976062876318,-79.04282745643955],[-73.184197383927,-78.81679496079701],[-72.22039064492654,-78.2616246362452],[-71.95649736559383,-77.94450343838693],[-71.87446278961954,-77.52440386412252],[-69.93500906009852,-77.53993658818123],[-69.21069867344826,-77.19815208163267],[-66.05454312909235,-76.84485168304866],[-62.915786840344914,-76.2231150513387],[-62.43070683890818,-75.84130085631821],[-61.81380747872261,-75.67221166809875]]],[[[-45.27508614770801,-81.60916170273441],[-45.71959308962428,-81.26008805497209],[-43.37070250935893,-81.0346047180639],[-42.56209931617158,-80.57744105441645],[-42.094294092191944,-79.63741388452554],[-42.319208498699496,-78.93824666456729],[-40.998893052006245,-78.85337946953032],[-37.771879871453244,-79.01533040682764],[-37.59930742776221,-79.71583959302347],[-36.8191421768715,-80.14285012098043],[-37.25050273691826,-80.22715568391949],[-38.84610811499964,-80.01133173956616],[-41.731821295696484,-80.50237817513107],[-42.31026104634186,-80.82303723847798],[-43.50991973766221,-81.1088447802151],[-43.87878342944778,-81.4241736292539],[-45.27508614770801,-81.60916170273441]]],[[[-24.317893672199116,-74.74820646869375],[-24.11720769329365,-74.71835956100249],[-22.95241941790009,-74.8882957112899],[-24.289408606080777,-74.91104964067465],[-24.317893672199116,-74.74820646869375]]],[[[-19.575570693231924,-74.61753033129739],[-19.648471313515103,-73.85351871597994],[-19.075599223633635,-73.51721961533208],[-17.39801915600947,-73.4162461379739],[-19.575570693231924,-74.61753033129739]]],[[[-0.768579154841855,-70.48596968358996],[-0.07403800782523645,-70.44130366992728],[0.12911080165923935,-70.5038726291769],[-0.32163270052659604,-70.68486676840007],[-0.768579154841855,-70.48596968358996]]],[[[70.52131540836906,-69.5625533541384],[71.52553855767053,-69.46481972744354],[70.93735037451658,-69.85278325064533],[70.79328223655786,-70.53328400599534],[70.47042942362913,-70.95841437403529],[69.88403944420752,-71.06062157186281],[70.095106231258,-70.59994812140295],[70.03628888289948,-70.12456244640211],[70.52131540836906,-69.5625533541384]]],[[[168.40700845801499,-78.54477938496956],[170.4412454448347,-78.16912443484233],[171.56386016528043,-78.34577969330697],[179.15,-78.68706555533683],[179.15,-83.39105265795487],[174.10741371704657,-83.00646624935554],[171.3130342210849,-82.60407073034375],[169.4728342341744,-82.54849291571583],[168.76792119373073,-82.16719461543813],[166.12995953180354,-81.86431063862233],[162.19511086484846,-80.80808041394002],[162.12466152812965,-80.44293035122172],[162.31937192336144,-79.87882439096545],[162.51797380448988,-79.78783615711244],[164.44500084033749,-79.45458932919506],[167.39326775242174,-79.48465864752814],[167.8270656871326,-79.26560520719902],[168.40700845801499,-78.54477938496956]]],[[[48.36258771212131,44.68173882001477],[48.71498172194821,44.99466495006531],[49.14310879860393,45.06812229369628],[49.41707345739007,44.14390854670647],[48.519361921265016,43.448067047084365],[48.705901100757806,44.12807099521173],[48.36258771212131,44.68173882001477]]],[[[50.70479910897703,45.855654817508544],[50.619884271121876,45.953683121450446],[50.91801819631182,46.077725893715915],[50.70479910897703,45.855654817508544]]],[[[18.994029597721028,75.57452397416154],[19.18770259086095,76.15424647849866],[19.48561567901478,76.06323747090254],[19.815294702614572,75.56396719984347],[20.201820874499283,75.41010367204684],[22.402166602938085,75.69764587099024],[22.82054617243371,75.95705783476495],[23.026126992361945,76.41851492602795],[23.448977747260667,76.44117709035248],[24.153776613938042,76.75785465098565],[24.192514909305203,76.04674322523614],[24.804503352501975,75.60745884004301],[20.815204329892712,75.03069695019192],[20.107257143979826,74.73597101638664],[19.805115872573587,75.16279353376103],[18.994029597721028,75.57452397416154]]],[[[26.247327249834527,76.18351159523175],[26.24511574359768,76.18216544490816],[26.24814230380433,76.18631506031991],[26.247327249834527,76.18351159523175]]],[[[26.417091161715636,76.5613863141712],[26.390404821255544,76.97104994948783],[26.153391713348082,77.35332803270008],[27.251393081980535,77.24599561404959],[27.603966441716025,76.98323633427164],[26.81881381788616,76.8864066881756],[26.417091161715636,76.5613863141712]]]]},"properties":{"name":"continental_shelf","sea_level_m":-25,"source":"Natural Earth 10m bathymetry, eroded approximation"}}]}